ONEWEB-0553             
1 56055U 23043K   23359.59010233  .00000105  00000+0  24098-3 0  9999
2 56055  87.9057  48.8264 0002064  85.5689 274.5677 13.16590378 39940
ONEWEB-0554             
1 56056U 23043L   23359.57743577 -.00000030  00000+0 -11176-3 0  9994
2 56056  87.9060  48.8455 0001038 117.2986 242.8251 13.16616991 39924
ONEWEB-0555             
1 56057U 23043M   23359.61546802  .00000016  00000+0  79536-5 0  9990
2 56057  87.9060  48.8140 0001843  77.5931 282.5406 13.16597129 39933
ONEWEB-0557             
1 56058U 23043N   23359.55421264 -.00000023  00000+0 -93869-4 0  9992
2 56058  87.9059  48.8535 0001553  56.6093 303.5186 13.16594878 39921
ONEWEB-0558             
1 56059U 23043P   23359.56773046 -.00000301  00000+0 -76043-3 0  9995
2 56059  87.9242  64.0644 0002109 113.9012 246.2343 13.21822800 38734
ONEWEB-0559             
1 56060U 23043Q   23359.25390470  .00000028  00000+0  37125-4 0  9992
2 56060  87.9240  64.1270 0001605 125.2662 234.8623 13.21825487 38702
ONEWEB-0566             
1 56061U 23043R   23359.55038530 -.00000167  00000+0 -43610-3 0  9993
2 56061  87.9240  64.0687 0002222 120.8428 239.2924 13.21825117 38726
ONEWEB-0568             
1 56062U 23043S   23359.57111042  .00000052  00000+0  10194-3 0  9998
2 56062  87.9057  48.8128 0001903  86.9440 273.1908 13.16592181 39944
